{
  "type": "FeatureCollection",
  "features": [
    {
      "type": "Feature",
      "properties": {
        "norad_id": 38833,
        "name": "GPS BIIF-3  (PRN 24)",
        "group": "gps-ops",
        "lat": 51.894256529249,
        "lon": -138.43894318712714,
        "alt_km": 19722.24580177432,
        "timestamp": "2025-12-15T22:44:29.186542+00:00",
        "meta_object_name": "GPS BIIF-3  (PRN 24)",
        "meta_object_id": "2012-053A",
        "meta_epoch": "2025-12-14T20:17:27.870144",
        "meta_mean_motion": 2.00565059,
        "meta_eccentricity": 0.01759136,
        "meta_inclination": 53.558,
        "meta_ra_of_asc_node": 151.1523,
        "meta_arg_of_pericenter": 64.0191,
        "meta_mean_anomaly": 297.785,
        "meta_ephemeris_type": 0,
        "meta_classification_type": "U",
        "meta_norad_cat_id": 38833,
        "meta_element_set_no": 999,
        "meta_rev_at_epoch": 9574,
        "meta_bstar": 0,
        "meta_mean_motion_dot": 8.8e-07,
        "meta_mean_motion_ddot": 0,
        "tle_line1": "1 38833U 12053A   25348.84546146  .00000088  00000+0  00000+0 0  9990",
        "tle_line2": "2 38833  53.5580 151.1523 0175913  64.0191 297.7850  2.00565059 95743"
      },
      "geometry": {
        "type": "Point",
        "coordinates": [
          -138.43894318712714,
          51.894256529249
        ]
      }
    },
    {
      "type": "Feature",
      "properties": {
        "norad_id": 39166,
        "name": "GPS BIIF-4  (PRN 27)",
        "group": "gps-ops",
        "lat": 2.889428739590071,
        "lon": 94.37204708703419,
        "alt_km": 20404.22825198536,
        "timestamp": "2025-12-15T22:44:29.186554+00:00",
        "meta_object_name": "GPS BIIF-4  (PRN 27)",
        "meta_object_id": "2013-023A",
        "meta_epoch": "2025-12-14T05:03:38.216736",
        "meta_mean_motion": 2.0056471,
        "meta_eccentricity": 0.01375063,
        "meta_inclination": 54.6512,
        "meta_ra_of_asc_node": 276.5088,
        "meta_arg_of_pericenter": 48.2653,
        "meta_mean_anomaly": 312.9132,
        "meta_ephemeris_type": 0,
        "meta_classification_type": "U",
        "meta_norad_cat_id": 39166,
        "meta_element_set_no": 999,
        "meta_rev_at_epoch": 9217,
        "meta_bstar": 0,
        "meta_mean_motion_dot": -7.4e-07,
        "meta_mean_motion_ddot": 0,
        "tle_line1": "1 39166U 13023A   25348.21085899 -.00000074  00000+0  00000+0 0  9998",
        "tle_line2": "2 39166  54.6512 276.5088 0137506  48.2653 312.9132  2.00564710 92171"
      },
      "geometry": {
        "type": "Point",
        "coordinates": [
          94.37204708703419,
          2.889428739590071
        ]
      }
    },
    {
      "type": "Feature",
      "properties": {
        "norad_id": 39533,
        "name": "GPS BIIF-5  (PRN 30)",
        "group": "gps-ops",
        "lat": 2.301063854331338,
        "lon": -24.91189230591742,
        "alt_km": 20043.471799233088,
        "timestamp": "2025-12-15T22:44:29.186566+00:00",
        "meta_object_name": "GPS BIIF-5  (PRN 30)",
        "meta_object_id": "2014-008A",
        "meta_epoch": "2025-12-15T04:50:44.382048",
        "meta_mean_motion": 2.00574587,
        "meta_eccentricity": 0.00792844,
        "meta_inclination": 53.6316,
        "meta_ra_of_asc_node": 156.8242,
        "meta_arg_of_pericenter": 226.5494,
        "meta_mean_anomaly": 132.8002,
        "meta_ephemeris_type": 0,
        "meta_classification_type": "U",
        "meta_norad_cat_id": 39533,
        "meta_element_set_no": 999,
        "meta_rev_at_epoch": 8599,
        "meta_bstar": 0,
        "meta_mean_motion_dot": 9.4e-07,
        "meta_mean_motion_ddot": 0,
        "tle_line1": "1 39533U 14008A   25349.20190257  .00000094  00000+0  00000+0 0  9996",
        "tle_line2": "2 39533  53.6316 156.8242 0079284 226.5494 132.8002  2.00574587 85994"
      },
      "geometry": {
        "type": "Point",
        "coordinates": [
          -24.91189230591742,
          2.301063854331338
        ]
      }
    },
    {
      "type": "Feature",
      "properties": {
        "norad_id": 39741,
        "name": "GPS BIIF-6  (PRN 06)",
        "group": "gps-ops",
        "lat": -21.847370251889952,
        "lon": -36.70437556990552,
        "alt_km": 20084.63463964279,
        "timestamp": "2025-12-15T22:44:29.186577+00:00",
        "meta_object_name": "GPS BIIF-6  (PRN 06)",
        "meta_object_id": "2014-026A",
        "meta_epoch": "2025-12-14T23:41:00.555072",
        "meta_mean_motion": 2.00561287,
        "meta_eccentricity": 0.00392407,
        "meta_inclination": 56.5827,
        "meta_ra_of_asc_node": 338.6889,
        "meta_arg_of_pericenter": 318.8157,
        "meta_mean_anomaly": 40.9005,
        "meta_ephemeris_type": 0,
        "meta_classification_type": "U",
        "meta_norad_cat_id": 39741,
        "meta_element_set_no": 999,
        "meta_rev_at_epoch": 8484,
        "meta_bstar": 0,
        "meta_mean_motion_dot": -8.7e-07,
        "meta_mean_motion_ddot": 0,
        "tle_line1": "1 39741U 14026A   25348.98681198 -.00000087  00000+0  00000+0 0  9993",
        "tle_line2": "2 39741  56.5827 338.6889 0039240 318.8157  40.9005  2.00561287 84848"
      },
      "geometry": {
        "type": "Point",
        "coordinates": [
          -36.70437556990552,
          -21.847370251889952
        ]
      }
    },
    {
      "type": "Feature",
      "properties": {
        "norad_id": 40105,
        "name": "GPS BIIF-7  (PRN 09)",
        "group": "gps-ops",
        "lat": -55.227180020564596,
        "lon": 7.829180209536821,
        "alt_km": 20263.3009164838,
        "timestamp": "2025-12-15T22:44:29.186589+00:00",
        "meta_object_name": "GPS BIIF-7  (PRN 09)",
        "meta_object_id": "2014-045A",
        "meta_epoch": "2025-12-12T01:59:18.865536",
        "meta_mean_motion": 2.00572516,
        "meta_eccentricity": 0.00326941,
        "meta_inclination": 55.2287,
        "meta_ra_of_asc_node": 95.9251,
        "meta_arg_of_pericenter": 119.8618,
        "meta_mean_anomaly": 240.4523,
        "meta_ephemeris_type": 0,
        "meta_classification_type": "U",
        "meta_norad_cat_id": 40105,
        "meta_element_set_no": 999,
        "meta_rev_at_epoch": 8232,
        "meta_bstar": 0,
        "meta_mean_motion_dot": -9e-08,
        "meta_mean_motion_ddot": 0,
        "tle_line1": "1 40105U 14045A   25346.08285724 -.00000009  00000+0  00000+0 0  9998",
        "tle_line2": "2 40105  55.2287  95.9251 0032694 119.8618 240.4523  2.00572516 82323"
      },
      "geometry": {
        "type": "Point",
        "coordinates": [
          7.829180209536821,
          -55.227180020564596
        ]
      }
    },
    {
      "type": "Feature",
      "properties": {
        "norad_id": 40294,
        "name": "GPS BIIF-8  (PRN 03)",
        "group": "gps-ops",
        "lat": -1.0731794694412051,
        "lon": 37.33931289679866,
        "alt_km": 20127.431505478282,
        "timestamp": "2025-12-15T22:44:29.186601+00:00",
        "meta_object_name": "GPS BIIF-8  (PRN 03)",
        "meta_object_id": "2014-068A",
        "meta_epoch": "2025-12-13T10:57:14.379552",
        "meta_mean_motion": 2.00564944,
        "meta_eccentricity": 0.00607799,
        "meta_inclination": 56.8584,
        "meta_ra_of_asc_node": 38.1182,
        "meta_arg_of_pericenter": 69.1634,
        "meta_mean_anomaly": 291.5378,
        "meta_ephemeris_type": 0,
        "meta_classification_type": "U",
        "meta_norad_cat_id": 40294,
        "meta_element_set_no": 999,
        "meta_rev_at_epoch": 8148,
        "meta_bstar": 0,
        "meta_mean_motion_dot": -9.5e-07,
        "meta_mean_motion_ddot": 0,
        "tle_line1": "1 40294U 14068A   25347.45641643 -.00000095  00000+0  00000+0 0  9995",
        "tle_line2": "2 40294  56.8584  38.1182 0060779  69.1634 291.5378  2.00564944 81488"
      },
      "geometry": {
        "type": "Point",
        "coordinates": [
          37.33931289679866,
          -1.0731794694412051
        ]
      }
    },
    {
      "type": "Feature",
      "properties": {
        "norad_id": 40534,
        "name": "GPS BIIF-9  (PRN 26)",
        "group": "gps-ops",
        "lat": -52.87508821485875,
        "lon": 113.10098685943765,
        "alt_km": 20383.683968317702,
        "timestamp": "2025-12-15T22:44:29.186612+00:00",
        "meta_object_name": "GPS BIIF-9  (PRN 26)",
        "meta_object_id": "2015-013A",
        "meta_epoch": "2025-12-15T01:58:15.977568",
        "meta_mean_motion": 2.00562514,
        "meta_eccentricity": 0.01071546,
        "meta_inclination": 53.1974,
        "meta_ra_of_asc_node": 211.7932,
        "meta_arg_of_pericenter": 38.5371,
        "meta_mean_anomaly": 322.3085,
        "meta_ephemeris_type": 0,
        "meta_classification_type": "U",
        "meta_norad_cat_id": 40534,
        "meta_element_set_no": 999,
        "meta_rev_at_epoch": 7813,
        "meta_bstar": 0,
        "meta_mean_motion_dot": 6.8e-07,
        "meta_mean_motion_ddot": 0,
        "tle_line1": "1 40534U 15013A   25349.08212937  .00000068  00000+0  00000+0 0  9993",
        "tle_line2": "2 40534  53.1974 211.7932 0107154  38.5371 322.3085  2.00562514 78134"
      },
      "geometry": {
        "type": "Point",
        "coordinates": [
          113.10098685943765,
          -52.87508821485875
        ]
      }
    }
  ]
}